[{"OBJECT_NAME":"XINGYUN-2 01","OBJECT_ID":"2020-028A","EPOCH":"2026-03-09T23:27:57.512736","MEAN_MOTION":15.11323975,"ECCENTRICITY":0.00090563,"INCLINATION":97.4853,"RA_OF_ASC_NODE":63.3977,"ARG_OF_PERICENTER":174.572,"MEAN_ANOMALY":185.561,"EPHEMERIS_TYPE":0,"CLASSIFICATION_TYPE":"U","NORAD_CAT_ID":45602,"ELEMENT_SET_NO":999,"REV_AT_EPOCH":31985,"BSTAR":0.000253969,"MEAN_MOTION_DOT":4.22e-5,"MEAN_MOTION_DDOT":0},{"OBJECT_NAME":"STARLINK-3626","OBJECT_ID":"2022-017AA","EPOCH":"2026-03-09T04:06:11.916864","MEAN_MOTION":15.08836378,"ECCENTRICITY":0.0001504,"INCLINATION":53.22,"RA_OF_ASC_NODE":351.4484,"ARG_OF_PERICENTER":79.5998,"MEAN_ANOMALY":280.5163,"EPHEMERIS_TYPE":0,"CLASSIFICATION_TYPE":"U","NORAD_CAT_ID":51792,"ELEMENT_SET_NO":999,"REV_AT_EPOCH":22389,"BSTAR":-1.4603933e-5,"MEAN_MOTION_DOT":-5.2e-6,"MEAN_MOTION_DDOT":0}]
